GOES 9                  
1 23581U 95025A   08344.55327230 -.00000237  00000-0  10000-3 0  8677
2 23581   4.8339  72.9385 0001142 253.6422 106.0819  0.98803335 49551
SARSAT 7 (NOAA 15)      
1 25338U 98030A   08347.45810162 -.00000015  00000-0  11876-4 0  7330
2 25338  98.5692 334.9231 0009851 239.8882 120.1342 14.24736508550182
GOES 11                 
1 26352U 00022A   08347.26532080  .00000105  00000-0  10000-3 0   957
2 26352   0.0369 252.1892 0005955 355.3157 153.8898  1.00273959 31530
COSPAS 9 (NADEZHDA 6)   
1 26384U 00033A   08348.11403635  .00000072  00000-0  23269-4 0  4861
2 26384  98.4125   8.9578 0016944  76.7545 283.5550 14.64085657451722
SARSAT 8 (NOAA 16)      
1 26536U 00055A   08347.42995980 -.00000171  00000-0 -67401-4 0  2086
2 26536  99.1708 340.6438 0011293  86.6172 273.6300 14.12503864423938
GOES 12                 
1 26871U 01031A   08346.10979615 -.00000229  00000-0  00000+0 0  8462
2 26871   0.4564 263.5177 0001534 245.7481 254.9227  1.00289782 27120
SARSAT 9 (NOAA 17)      
1 27453U 02032A   08347.45403434  .00000021  00000-0  27648-4 0  2163
2 27453  98.5142  46.7160 0010974 311.3842  48.6403 14.24024389336171
MSG-1                   
1 27509U 02040B   08347.92630072  .00000074  00000-0  10000-3 0   479
2 27509   0.4549 342.7513 0001479 220.5955 221.3314  1.00272067 23131
INSAT 3A                
1 27714U 03013A   08346.97552882 -.00000242  00000-0  10000-3 0  3880
2 27714   0.0295  49.4632 0001767 124.4141 351.8860  1.00270093 20820
SARSAT 10 (NOAA 18)     
1 28654U 05018A   08347.44091611  .00000013  00000-0  31591-4 0  6991
2 28654  98.8882 286.3284 0014423 167.1842 192.9682 14.11216704183619
MSG-2                   
1 28912U 05049B   08346.79166667  .00000016  00000-0  10000-3 0  4333
2 28912   0.2867 177.5298 0002696 113.8420  74.4247  1.00280958 10976
SARSAT 11 (METOP-A)     
1 29499U 06044A   08347.44081530 -.00000099  00000-0 -25245-4 0  6746
2 29499  98.7170  44.2874 0000914  92.1345 267.9957 14.21482717111481
